{
  "norad_id": 60027,
  "name": "STARLINK-32012",
  "history": [
    {
      "epoch": "2026-03-28T21:06:32.361408",
      "apogee_km": 476.0929079334319,
      "perigee_km": 474.37435671366984,
      "latitude_deg": 53.159893738567895,
      "longitude_deg": -92.86404288001359,
      "semi_major_axis_km": 6853.37063232355,
      "eccentricity": 0.00012538,
      "inclination_deg": 53.16,
      "raan_deg": 346.3379,
      "arg_perigee_deg": 99.1651,
      "mean_anomaly_deg": 260.9492,
      "mean_motion_rev_day": 15.30193783
    },
    {
      "epoch": "2026-03-29T00:14:38.739840",
      "apogee_km": 476.0043736218149,
      "perigee_km": 474.4788115471056,
      "latitude_deg": -26.288156535040155,
      "longitude_deg": -80.32362239994109,
      "semi_major_axis_km": 6853.37859258446,
      "eccentricity": 0.0001113,
      "inclination_deg": 53.1597,
      "raan_deg": 345.7302,
      "arg_perigee_deg": 91.1598,
      "mean_anomaly_deg": 268.9531,
      "mean_motion_rev_day": 15.30191117
    }
  ]
}